{
  "norad_id": 66392,
  "name": "STARLINK-35671",
  "history": [
    {
      "epoch": "2026-03-28T19:11:02.269248",
      "apogee_km": 475.88840328667993,
      "perigee_km": 474.5092379861353,
      "latitude_deg": -43.964260751191176,
      "longitude_deg": 175.93585471995175,
      "semi_major_axis_km": 6853.335820636407,
      "eccentricity": 0.00010062,
      "inclination_deg": 53.1574,
      "raan_deg": 127.9496,
      "arg_perigee_deg": 95.6761,
      "mean_anomaly_deg": 264.4354,
      "mean_motion_rev_day": 15.30205442
    }
  ]
}